STARLINK-4546           
1 53422U 22097AL  25291.97795002  .00000178  00000+0  29268-4 0  9990
2 53422  53.2176  30.2887 0001191  85.1589 274.9539 15.08838028177252
STARLINK-4539           
1 53423U 22097AM  25291.98995538 -.00001914  00000+0 -10218-3 0  9993
2 53423  53.2190  30.2453 0002672  97.6949 262.4346 15.08832026177239
STARLINK-4532           
1 53424U 22097AN  25291.97058346  .00002238  00000+0  15863-3 0  9999
2 53424  53.2196  30.3229 0001535  92.6664 267.4504 15.08854038177254
STARLINK-4531           
1 53425U 22097AP  25291.98162700  .00001267  00000+0  97642-4 0  9998
2 53425  53.2176  30.2722 0001129  90.0957 270.0165 15.08845216177224
STARLINK-4558           
1 53426U 22097AQ  25291.94944516  .00002337  00000+0  16486-3 0  9993
2 53426  53.2205  20.5729 0001536  99.9609 260.1557 15.08849722177389
STARLINK-4543           
1 53429U 22097AT  25291.94576559  .00001697  00000+0  12464-3 0  9994
2 53429  53.2203  20.5496 0001034  96.3207 263.7903 15.08843890177383
STARLINK-4538           
1 53430U 22097AU  25291.54093347  .00005208  00000+0  34484-3 0  9999
2 53430  53.2167  22.2861 0001042  92.5980 267.5131 15.08864275177301
STARLINK-4548           
1 53431U 22097AV  25291.63289934  .00001217  00000+0  94535-4 0  9999
2 53431  53.2200  21.4538 0001412  85.3130 274.8024 15.08847871177349
STARLINK-4557           
1 53432U 22097AW  25291.97882914  .00001181  00000+0  92246-4 0  9991
2 53432  53.2159  20.0488 0001219  93.6580 266.4551 15.08855571177391
STARLINK-4549           
1 53433U 22097AX  25291.53727606  .00000249  00000+0  33704-4 0  9998
2 53433  53.2179  22.2613 0001305  92.6167 267.4975 15.08836681177307
STARLINK-4498           
1 53434U 22097AY  25291.97514865  .00003132  00000+0  21468-3 0  9995
2 53434  53.2195  20.0228 0001545  85.5924 274.5245 15.08855338177402
STARLINK-4542           
1 53435U 22097AZ  25291.98252401  .00001212  00000+0  94218-4 0  9993
2 53435  53.2195  20.0700 0001435  96.0584 264.0572 15.08846147177376
STARLINK-4527           
1 53436U 22097BA  25291.97147442  .00000776  00000+0  66854-4 0  9990
2 53436  53.2197  20.0023 0001536  84.9214 275.1954 15.08841940177390
STARLINK-4526           
1 53438U 22097BC  25291.96779204  .00005387  00000+0  35627-3 0  9994
2 53438  53.2191  19.9796 0001432  95.5563 264.5592 15.08841813177401
STARLINK-4519           
1 53439U 22097BD  25291.97979323  .00000865  00000+0  72341-4 0  9991
2 53439  53.2188  20.0510 0000511  97.7219 262.3832 15.08865116177409
STARLINK-4415           
1 53465U 22099A   25292.26546423  .00001051  00000+0  77041-4 0  9996
2 53465  97.6061  51.8144 0001677  90.9987 269.1432 15.05651219174756
