[{"OBJECT_NAME":"STARLINK-4546","OBJECT_ID":"2022-097AL","EPOCH":"2025-10-18T23:28:14.881728","MEAN_MOTION":15.08838028,"ECCENTRICITY":0.00011914,"INCLINATION":53.2176,"RA_OF_ASC_NODE":30.2887,"ARG_OF_PERICENTER":85.1589,"MEAN_ANOMALY":274.9539,"EPHEMERIS_TYPE":0,"CLASSIFICATION_TYPE":"U","NORAD_CAT_ID":53422,"ELEMENT_SET_NO":999,"REV_AT_EPOCH":17725,"BSTAR":2.9268485e-5,"MEAN_MOTION_DOT":1.78e-6,"MEAN_MOTION_DDOT":0},{"OBJECT_NAME":"STARLINK-4539","OBJECT_ID":"2022-097AM","EPOCH":"2025-10-18T23:45:32.144832","MEAN_MOTION":15.08832026,"ECCENTRICITY":0.0002672,"INCLINATION":53.219,"RA_OF_ASC_NODE":30.2453,"ARG_OF_PERICENTER":97.6949,"MEAN_ANOMALY":262.4346,"EPHEMERIS_TYPE":0,"CLASSIFICATION_TYPE":"U","NORAD_CAT_ID":53423,"ELEMENT_SET_NO":999,"REV_AT_EPOCH":17723,"BSTAR":-0.00010218135,"MEAN_MOTION_DOT":-1.914e-5,"MEAN_MOTION_DDOT":0},{"OBJECT_NAME":"STARLINK-4532","OBJECT_ID":"2022-097AN","EPOCH":"2025-10-18T23:17:38.410944","MEAN_MOTION":15.08854038,"ECCENTRICITY":0.00015352,"INCLINATION":53.2196,"RA_OF_ASC_NODE":30.3229,"ARG_OF_PERICENTER":92.6664,"MEAN_ANOMALY":267.4504,"EPHEMERIS_TYPE":0,"CLASSIFICATION_TYPE":"U","NORAD_CAT_ID":53424,"ELEMENT_SET_NO":999,"REV_AT_EPOCH":17725,"BSTAR":0.00015863319,"MEAN_MOTION_DOT":2.238e-5,"MEAN_MOTION_DDOT":0},{"OBJECT_NAME":"STARLINK-4531","OBJECT_ID":"2022-097AP","EPOCH":"2025-10-18T23:33:32.572800","MEAN_MOTION":15.08845216,"ECCENTRICITY":0.00011296,"INCLINATION":53.2176,"RA_OF_ASC_NODE":30.2722,"ARG_OF_PERICENTER":90.0957,"MEAN_ANOMALY":270.0165,"EPHEMERIS_TYPE":0,"CLASSIFICATION_TYPE":"U","NORAD_CAT_ID":53425,"ELEMENT_SET_NO":999,"REV_AT_EPOCH":17722,"BSTAR":9.7641733e-5,"MEAN_MOTION_DOT":1.267e-5,"MEAN_MOTION_DDOT":0},{"OBJECT_NAME":"STARLINK-4558","OBJECT_ID":"2022-097AQ","EPOCH":"2025-10-18T22:47:12.061824","MEAN_MOTION":15.08849722,"ECCENTRICITY":0.00015366,"INCLINATION":53.2205,"RA_OF_ASC_NODE":20.5729,"ARG_OF_PERICENTER":99.9609,"MEAN_ANOMALY":260.1557,"EPHEMERIS_TYPE":0,"CLASSIFICATION_TYPE":"U","NORAD_CAT_ID":53426,"ELEMENT_SET_NO":999,"REV_AT_EPOCH":17738,"BSTAR":0.00016485561,"MEAN_MOTION_DOT":2.337e-5,"MEAN_MOTION_DDOT":0},{"OBJECT_NAME":"STARLINK-4543","OBJECT_ID":"2022-097AT","EPOCH":"2025-10-18T22:41:54.146976","MEAN_MOTION":15.0884389,"ECCENTRICITY":0.0001034,"INCLINATION":53.2203,"RA_OF_ASC_NODE":20.5496,"ARG_OF_PERICENTER":96.3207,"MEAN_ANOMALY":263.7903,"EPHEMERIS_TYPE":0,"CLASSIFICATION_TYPE":"U","NORAD_CAT_ID":53429,"ELEMENT_SET_NO":999,"REV_AT_EPOCH":17738,"BSTAR":0.00012463907,"MEAN_MOTION_DOT":1.697e-5,"MEAN_MOTION_DDOT":0},{"OBJECT_NAME":"STARLINK-4538","OBJECT_ID":"2022-097AU","EPOCH":"2025-10-18T12:58:56.651808","MEAN_MOTION":15.08864275,"ECCENTRICITY":0.00010421,"INCLINATION":53.2167,"RA_OF_ASC_NODE":22.2861,"ARG_OF_PERICENTER":92.598,"MEAN_ANOMALY":267.5131,"EPHEMERIS_TYPE":0,"CLASSIFICATION_TYPE":"U","NORAD_CAT_ID":53430,"ELEMENT_SET_NO":999,"REV_AT_EPOCH":17730,"BSTAR":0.00034484057,"MEAN_MOTION_DOT":5.208e-5,"MEAN_MOTION_DDOT":0},{"OBJECT_NAME":"STARLINK-4548","OBJECT_ID":"2022-097AV","EPOCH":"2025-10-18T15:11:22.502976","MEAN_MOTION":15.08847871,"ECCENTRICITY":0.00014122,"INCLINATION":53.22,"RA_OF_ASC_NODE":21.4538,"ARG_OF_PERICENTER":85.313,"MEAN_ANOMALY":274.8024,"EPHEMERIS_TYPE":0,"CLASSIFICATION_TYPE":"U","NORAD_CAT_ID":53431,"ELEMENT_SET_NO":999,"REV_AT_EPOCH":17734,"BSTAR":9.4534843e-5,"MEAN_MOTION_DOT":1.217e-5,"MEAN_MOTION_DDOT":0},{"OBJECT_NAME":"STARLINK-4557","OBJECT_ID":"2022-097AW","EPOCH":"2025-10-18T23:29:30.837696","MEAN_MOTION":15.08855571,"ECCENTRICITY":0.0001219,"INCLINATION":53.2159,"RA_OF_ASC_NODE":20.0488,"ARG_OF_PERICENTER":93.658,"MEAN_ANOMALY":266.4551,"EPHEMERIS_TYPE":0,"CLASSIFICATION_TYPE":"U","NORAD_CAT_ID":53432,"ELEMENT_SET_NO":999,"REV_AT_EPOCH":17739,"BSTAR":9.2245546e-5,"MEAN_MOTION_DOT":1.181e-5,"MEAN_MOTION_DDOT":0},{"OBJECT_NAME":"STARLINK-4549","OBJECT_ID":"2022-097AX","EPOCH":"2025-10-18T12:53:40.651584","MEAN_MOTION":15.08836681,"ECCENTRICITY":0.00013052,"INCLINATION":53.2179,"RA_OF_ASC_NODE":22.2613,"ARG_OF_PERICENTER":92.6167,"MEAN_ANOMALY":267.4975,"EPHEMERIS_TYPE":0,"CLASSIFICATION_TYPE":"U","NORAD_CAT_ID":53433,"ELEMENT_SET_NO":999,"REV_AT_EPOCH":17730,"BSTAR":3.3703937e-5,"MEAN_MOTION_DOT":2.49e-6,"MEAN_MOTION_DDOT":0},{"OBJECT_NAME":"STARLINK-4498","OBJECT_ID":"2022-097AY","EPOCH":"2025-10-18T23:24:12.843360","MEAN_MOTION":15.08855338,"ECCENTRICITY":0.00015452,"INCLINATION":53.2195,"RA_OF_ASC_NODE":20.0228,"ARG_OF_PERICENTER":85.5924,"MEAN_ANOMALY":274.5245,"EPHEMERIS_TYPE":0,"CLASSIFICATION_TYPE":"U","NORAD_CAT_ID":53434,"ELEMENT_SET_NO":999,"REV_AT_EPOCH":17740,"BSTAR":0.00021467533,"MEAN_MOTION_DOT":3.132e-5,"MEAN_MOTION_DDOT":0},{"OBJECT_NAME":"STARLINK-4542","OBJECT_ID":"2022-097AZ","EPOCH":"2025-10-18T23:34:50.074464","MEAN_MOTION":15.08846147,"ECCENTRICITY":0.00014352,"INCLINATION":53.2195,"RA_OF_ASC_NODE":20.07,"ARG_OF_PERICENTER":96.0584,"MEAN_ANOMALY":264.0572,"EPHEMERIS_TYPE":0,"CLASSIFICATION_TYPE":"U","NORAD_CAT_ID":53435,"ELEMENT_SET_NO":999,"REV_AT_EPOCH":17737,"BSTAR":9.421832e-5,"MEAN_MOTION_DOT":1.212e-5,"MEAN_MOTION_DDOT":0},{"OBJECT_NAME":"STARLINK-4527","OBJECT_ID":"2022-097BA","EPOCH":"2025-10-18T23:18:55.389888","MEAN_MOTION":15.0884194,"ECCENTRICITY":0.0001536,"INCLINATION":53.2197,"RA_OF_ASC_NODE":20.0023,"ARG_OF_PERICENTER":84.9214,"MEAN_ANOMALY":275.1954,"EPHEMERIS_TYPE":0,"CLASSIFICATION_TYPE":"U","NORAD_CAT_ID":53436,"ELEMENT_SET_NO":999,"REV_AT_EPOCH":17739,"BSTAR":6.6854185e-5,"MEAN_MOTION_DOT":7.76e-6,"MEAN_MOTION_DDOT":0},{"OBJECT_NAME":"STARLINK-4526","OBJECT_ID":"2022-097BC","EPOCH":"2025-10-18T23:13:37.232256","MEAN_MOTION":15.08841813,"ECCENTRICITY":0.00014323,"INCLINATION":53.2191,"RA_OF_ASC_NODE":19.9796,"ARG_OF_PERICENTER":95.5563,"MEAN_ANOMALY":264.5592,"EPHEMERIS_TYPE":0,"CLASSIFICATION_TYPE":"U","NORAD_CAT_ID":53438,"ELEMENT_SET_NO":999,"REV_AT_EPOCH":17740,"BSTAR":0.00035627266,"MEAN_MOTION_DOT":5.387e-5,"MEAN_MOTION_DDOT":0},{"OBJECT_NAME":"STARLINK-4519","OBJECT_ID":"2022-097BD","EPOCH":"2025-10-18T23:30:54.135072","MEAN_MOTION":15.08865116,"ECCENTRICITY":5.116e-5,"INCLINATION":53.2188,"RA_OF_ASC_NODE":20.051,"ARG_OF_PERICENTER":97.7219,"MEAN_ANOMALY":262.3832,"EPHEMERIS_TYPE":0,"CLASSIFICATION_TYPE":"U","NORAD_CAT_ID":53439,"ELEMENT_SET_NO":999,"REV_AT_EPOCH":17740,"BSTAR":7.2340847e-5,"MEAN_MOTION_DOT":8.65e-6,"MEAN_MOTION_DDOT":0},{"OBJECT_NAME":"STARLINK-4415","OBJECT_ID":"2022-099A","EPOCH":"2025-10-19T06:22:16.109472","MEAN_MOTION":15.05651219,"ECCENTRICITY":0.00016778,"INCLINATION":97.6061,"RA_OF_ASC_NODE":51.8144,"ARG_OF_PERICENTER":90.9987,"MEAN_ANOMALY":269.1432,"EPHEMERIS_TYPE":0,"CLASSIFICATION_TYPE":"U","NORAD_CAT_ID":53465,"ELEMENT_SET_NO":999,"REV_AT_EPOCH":17475,"BSTAR":7.7041157e-5,"MEAN_MOTION_DOT":1.051e-5,"MEAN_MOTION_DDOT":0}]
